CCSDS_OMM_VERS,COMMENT,CREATION_DATE,ORIGINATOR,OBJECT_NAME,OBJECT_ID,CENTER_NAME,REF_FRAME,TIME_SYSTEM,MEAN_ELEMENT_THEORY,EPOCH,MEAN_MOTION,ECCENTRICITY,INCLINATION,RA_OF_ASC_NODE,ARG_OF_PERICENTER,MEAN_ANOMALY,EPHEMERIS_TYPE,CLASSIFICATION_TYPE,NORAD_CAT_ID,ELEMENT_SET_NO,REV_AT_EPOCH,BSTAR,MEAN_MOTION_DOT,MEAN_MOTION_DDOT,SEMIMAJOR_AXIS,PERIOD,APOAPSIS,PERIAPSIS,OBJECT_TYPE,RCS_SIZE,COUNTRY_CODE,LAUNCH_DATE,SITE,DECAY_DATE,FILE,GP_ID,TLE_LINE0,TLE_LINE1,TLE_LINE2
"2.0","GENERATED VIA SPACE-TRACK.ORG API","2020-08-03T21:26:44","18 SPCS","COSMOS 1818","1987-011A","EARTH","TEME","UTC","SGP4","2020-08-03T05:24:20.353248","14.31457718","0.00134670","65.0114","132.4838","280.5869","79.3698","0","U","17369","999","80195","-0.00000127090000","-0.00000104","0.0000000000000","7164.999","100.596","796.513","777.215","PAYLOAD","LARGE","CIS","1987-02-01","TTMTR","","2795482","158701243","0 COSMOS 1818","1 17369U 87011A   20216.22523557 -.00000104 +00000-0 -12709-5 0  9996","2 17369 065.0114 132.4838 0013467 280.5869 079.3698 14.31457718801959"
"2.0","GENERATED VIA SPACE-TRACK.ORG API","2020-08-03T06:36:09","18 SPCS","COSMOS 1818","1987-011A","EARTH","TEME","UTC","SGP4","2020-08-03T02:03:07.894656","14.31457706","0.00134620","65.0114","132.8751","280.5636","79.3931","0","U","17369","999","80221","-0.00000272320000","-0.00000108","0.0000000000000","7164.999","100.596","796.509","777.218","PAYLOAD","LARGE","CIS","1987-02-01","TTMTR","","2795095","158687147","0 COSMOS 1818","1 17369U 87011A   20216.08550804 -.00000108  00000-0 -27232-5 0  9996","2 17369  65.0114 132.8751 0013462 280.5636  79.3931 14.31457706802211"
"2.0","GENERATED VIA SPACE-TRACK.ORG API","2020-08-03T01:41:14","18 SPCS","COSMOS 1818","1987-011A","EARTH","TEME","UTC","SGP4","2020-08-02T19:20:42.974016","14.31457738","0.00134530","65.0114","133.6576","280.5377","79.4192","0","U","17369","999","80189","-0.00000322000000","-0.00000109","0.0000000000000","7164.999","100.596","796.503","777.225","PAYLOAD","LARGE","CIS","1987-02-01","TTMTR","","2795042","158670285","0 COSMOS 1818","1 17369U 87011A   20215.80605294 -.00000109 +00000-0 -32200-5 0  9991","2 17369 065.0114 133.6576 0013453 280.5377 079.4192 14.31457738801895"
"2.0","GENERATED VIA SPACE-TRACK.ORG API","2020-08-03T01:41:14","18 SPCS","IRIDIUM 136","2017-061H","EARTH","TEME","UTC","SGP4","2020-08-02T11:59:19.103424","14.34217440","0.00018810","86.3991","201.4614","91.2951","268.8461","0","U","42962","999","14743","0.00002031900000","0.00000077","0.0000000000000","7155.805","100.403","779.016","776.324","PAYLOAD","LARGE","US","2017-10-09","AFWTR","","2795042","158683350","0 IRIDIUM 136","1 42962U 17061H   20215.49952666 +.00000077 +00000-0 +20319-4 0  9998","2 42962 086.3991 201.4614 0001881 091.2951 268.8461 14.34217440147438"
"2.0","GENERATED VIA SPACE-TRACK.ORG API","2020-08-02T18:07:38","18 SPCS","COSMOS 1818","1987-011A","EARTH","TEME","UTC","SGP4","2020-08-02T04:15:16.915104","14.31457709","0.00134390","65.0114","135.4183","280.4984","79.4586","0","U","17369","999","80180","-0.00000268390000","-0.00000107","0.0000000000000","7164.999","100.596","796.493","777.235","PAYLOAD","LARGE","CIS","1987-02-01","TTMTR","","2795041","158650206","0 COSMOS 1818","1 17369U 87011A   20215.17727911 -.00000107 +00000-0 -26839-5 0  9991","2 17369 065.0114 135.4183 0013439 280.4984 079.4586 14.31457709801802"
"2.0","GENERATED VIA SPACE-TRACK.ORG API","2020-08-02T18:07:38","18 SPCS","IRIDIUM 136","2017-061H","EARTH","TEME","UTC","SGP4","2020-08-02T00:16:03.097344","14.34217377","0.00018840","86.3991","201.6654","91.0009","269.1402","0","U","42962","999","14736","0.00002057800000","0.00000077","0.0000000000000","7155.805","100.403","779.018","776.322","PAYLOAD","LARGE","US","2017-10-09","AFWTR","","2795041","158661915","0 IRIDIUM 136","1 42962U 17061H   20215.01114696 +.00000077 +00000-0 +20578-4 0  9996","2 42962 086.3991 201.6654 0001884 091.0009 269.1402 14.34217377147369"
"2.0","GENERATED VIA SPACE-TRACK.ORG API","2020-08-02T02:03:52","18 SPCS","IRIDIUM 136","2017-061H","EARTH","TEME","UTC","SGP4","2020-08-01T22:35:35.096352","14.34217381","0.00018820","86.3990","201.6945","90.9360","269.2051","0","U","42962","999","14735","0.00002164500000","0.00000080","0.0000000000000","7155.805","100.403","779.017","776.323","PAYLOAD","LARGE","US","2017-10-09","AFWTR","","2794975","158641858","0 IRIDIUM 136","1 42962U 17061H   20214.94137843 +.00000080 +00000-0 +21645-4 0  9996","2 42962 086.3990 201.6945 0001882 090.9360 269.2051 14.34217381147352"
"2.0","GENERATED VIA SPACE-TRACK.ORG API","2020-08-02T02:03:52","18 SPCS","COSMOS 1818","1987-011A","EARTH","TEME","UTC","SGP4","2020-08-01T21:32:51.996192","14.31457723","0.00134290","65.0114","136.2008","280.4560","79.5010","0","U","17369","999","80176","-0.00000287080000","-0.00000108","0.0000000000000","7164.999","100.596","796.486","777.242","PAYLOAD","LARGE","CIS","1987-02-01","TTMTR","","2794975","158630262","0 COSMOS 1818","1 17369U 87011A   20214.89782403 -.00000108 +00000-0 -28708-5 0  9994","2 17369 065.0114 136.2008 0013429 280.4560 079.5010 14.31457723801760"
"2.0","GENERATED VIA SPACE-TRACK.ORG API","2020-08-01T14:26:09","18 SPCS","IRIDIUM 136","2017-061H","EARTH","TEME","UTC","SGP4","2020-08-01T10:52:19.088544","14.34217318","0.00018820","86.3990","201.8984","90.7428","269.3983","0","U","42962","999","14728","0.00002284300000","0.00000084","0.0000000000000","7155.805","100.403","779.017","776.323","PAYLOAD","LARGE","US","2017-10-09","AFWTR","","2794703","158598072","0 IRIDIUM 136","1 42962U 17061H   20214.45299871  .00000084  00000-0  22843-4 0  9997","2 42962  86.3990 201.8984 0001882  90.7428 269.3983 14.34217318147287"
"2.0","GENERATED VIA SPACE-TRACK.ORG API","2020-08-01T19:18:34","18 SPCS","COSMOS 1818","1987-011A","EARTH","TEME","UTC","SGP4","2020-08-01T03:06:13.482144","14.31457691","0.00134160","65.0114","138.3528","280.3991","79.5581","0","U","17369","999","80165","0.00000109280000","-0.00000097","0.0000000000000","7164.999","100.596","796.477","777.251","PAYLOAD","LARGE","CIS","1987-02-01","TTMTR","","2794821","158605979","0 COSMOS 1818","1 17369U 87011A   20214.12932271 -.00000097 +00000-0 +10928-5 0  9991","2 17369 065.0114 138.3528 0013416 280.3991 079.5581 14.31457691801658"
"2.0","GENERATED VIA SPACE-TRACK.ORG API","2020-08-01T19:18:34","18 SPCS","IRIDIUM 136","2017-061H","EARTH","TEME","UTC","SGP4","2020-08-01T00:49:31.079136","14.34217269","0.00018840","86.3990","202.0732","90.5425","269.5986","0","U","42962","999","14722","0.00002311900000","0.00000085","0.0000000000000","7155.805","100.403","779.018","776.322","PAYLOAD","LARGE","US","2017-10-09","AFWTR","","2794821","158619543","0 IRIDIUM 136","1 42962U 17061H   20214.03438749 +.00000085 +00000-0 +23119-4 0  9998","2 42962 086.3990 202.0732 0001884 090.5425 269.5986 14.34217269147222"
"2.0","GENERATED VIA SPACE-TRACK.ORG API","2020-08-01T02:32:42","18 SPCS","COSMOS 1818","1987-011A","EARTH","TEME","UTC","SGP4","2020-07-31T22:04:24.793824","14.31457685","0.00134100","65.0114","138.9396","280.3581","79.5992","0","U","17369","999","80162","0.00000027908000","-0.00000100","0.0000000000000","7164.999","100.596","796.472","777.256","PAYLOAD","LARGE","CIS","1987-02-01","TTMTR","","2794480","158577861","0 COSMOS 1818","1 17369U 87011A   20213.91973141 -.00000100 +00000-0 +27908-6 0  9990","2 17369 065.0114 138.9396 0013410 280.3581 079.5992 14.31457685801622"
"2.0","GENERATED VIA SPACE-TRACK.ORG API","2020-08-01T02:32:42","18 SPCS","IRIDIUM 136","2017-061H","EARTH","TEME","UTC","SGP4","2020-07-31T21:28:35.076288","14.34217253","0.00018840","86.3990","202.1315","90.4521","269.6890","0","U","42962","999","14720","0.00002389000000","0.00000087","0.0000000000000","7155.805","100.403","779.018","776.322","PAYLOAD","LARGE","US","2017-10-09","AFWTR","","2794480","158590909","0 IRIDIUM 136","1 42962U 17061H   20213.89485042 +.00000087 +00000-0 +23890-4 0  9997","2 42962 086.3990 202.1315 0001884 090.4521 269.6890 14.34217253147202"
"2.0","GENERATED VIA SPACE-TRACK.ORG API","2020-07-31T22:36:09","18 SPCS","COSMOS 1818","1987-011A","EARTH","TEME","UTC","SGP4","2020-07-31T20:23:48.564960","14.31457692","0.00134080","65.0114","139.1352","280.3557","79.6015","0","U","17369","999","80189","0.00000104710000","-0.00000097","0.0000000000000","7164.999","100.596","796.471","777.257","PAYLOAD","LARGE","CIS","1987-02-01","TTMTR","","2794335","158570605","0 COSMOS 1818","1 17369U 87011A   20213.84986765 -.00000097  00000-0  10471-5 0  9999","2 17369  65.0114 139.1352 0013408 280.3557  79.6015 14.31457692801891"
"2.0","GENERATED VIA SPACE-TRACK.ORG API","2020-07-31T17:46:29","18 SPCS","IRIDIUM 136","2017-061H","EARTH","TEME","UTC","SGP4","2020-07-31T11:25:47.066016","14.34217186","0.00018820","86.3989","202.3062","90.3061","269.8350","0","U","42962","999","14714","0.00002360600000","0.00000086","0.0000000000000","7155.806","100.403","779.017","776.324","PAYLOAD","LARGE","US","2017-10-09","AFWTR","","2794255","158567034","0 IRIDIUM 136","1 42962U 17061H   20213.47623919 +.00000086 +00000-0 +23606-4 0  9992","2 42962 086.3989 202.3062 0001882 090.3061 269.8350 14.34217186147148"
"2.0","GENERATED VIA SPACE-TRACK.ORG API","2020-07-31T14:56:09","18 SPCS","IRIDIUM 136","2017-061H","EARTH","TEME","UTC","SGP4","2020-07-31T09:45:19.064160","14.34217175","0.00018830","86.3989","202.3354","90.3159","269.8252","0","U","42962","999","14713","0.00002380600000","0.00000086","0.0000000000000","7155.806","100.403","779.018","776.323","PAYLOAD","LARGE","US","2017-10-09","AFWTR","","2794084","158544878","0 IRIDIUM 136","1 42962U 17061H   20213.40647065  .00000086  00000-0  23806-4 0  9995","2 42962  86.3989 202.3354 0001883  90.3159 269.8252 14.34217175147139"
